{"epoch":1784762836,"count":18316,"objects":[{"id":"33434","name":"CHUANG XIN 1-02(CX-1-02)","type":"PAYLOAD","l1":"1 33434U 08056B   26203.55852910  .00000113  00000-0  60693-4 0  9997","l2":"2 33434  98.6132 229.4711 0015087  40.4715 319.7587 14.30159777923677"},{"id":"33498","name":"STARS (KUKAI)","type":"PAYLOAD","l1":"1 33498U 09002G   26203.33736053  .00003932  00000-0  35619-3 0  9995","l2":"2 33498  98.1554 152.0880 0009957  60.8706 299.3510 14.95961356943736"},{"id":"33499","name":"KKS-1 (KISEKI)","type":"PAYLOAD","l1":"1 33499U 09002H   26203.54043928  .00000929  00000-0  12055-3 0  9993","l2":"2 33499  98.1169 126.5424 0008023 165.0575 195.0877 14.83201511941434"},{"id":"33591","name":"NOAA 19","type":"PAYLOAD","l1":"1 33591U 09005A   26203.51432915  .00000004  00000-0  26160-4 0  9991","l2":"2 33591  98.9504 274.4118 0012729 291.9111  68.0707 14.13479117899473"},{"id":"35683","name":"DMC 2","type":"PAYLOAD","l1":"1 35683U 09041C   26203.61132211  .00000740  00000-0  11445-3 0  9998","l2":"2 35683  97.8879 337.7211 0001700  99.7226 260.4176 14.76100986911797"},{"id":"35865","name":"METEOR-M","type":"PAYLOAD","l1":"1 35865U 09049A   26203.29867718  .00000047  00000-0  40397-4 0  9998","l2":"2 35865  98.7409 165.5241 0001899 176.5897 183.5294 14.23163570874249"},{"id":"35931","name":"OCEANSAT 2","type":"PAYLOAD","l1":"1 35931U 09051A   26203.58518633  .00000143  00000-0  12313-3 0  9999","l2":"2 35931  98.2328 186.9025 0017770 132.3952 227.8722 13.99656812884283"},{"id":"35932","name":"SWISSCUBE","type":"PAYLOAD","l1":"1 35932U 09051B   26203.26604623  .00000760  00000-0  15943-3 0  9997","l2":"2 35932  98.3999 111.7611 0008091 100.3347 259.8766 14.62540212894286"},{"id":"35933","name":"BEESAT","type":"PAYLOAD","l1":"1 35933U 09051C   26203.49920290  .00000591  00000-0  12833-3 0  9991","l2":"2 35933  98.3927 111.5595 0006451 110.9506 249.2386 14.61769795894345"},{"id":"35935","name":"ITUPSAT 1","type":"PAYLOAD","l1":"1 35935U 09051E   26203.24702328  .00000571  00000-0  12771-3 0  9995","l2":"2 35935  98.4012 110.4576 0008467 123.6016 236.5993 14.60486031893852"},{"id":"35951","name":"DMSP 5D-3 F18 (USA 210)","type":"PAYLOAD","l1":"1 35951U 09057A   26203.56956709  .00000207  00000-0  13011-3 0  9992","l2":"2 35951  98.9063 184.2664 0011634 145.3073 214.8861 14.14915108864595"},{"id":"36037","name":"PROBA 2","type":"PAYLOAD","l1":"1 36037U 09059B   26203.31587936  .00000149  00000-0  45107-4 0  9992","l2":"2 36037  98.2464  26.1841 0013521 166.8392 193.3161 14.54875759886633"},{"id":"36110","name":"YAOGAN 7","type":"PAYLOAD","l1":"1 36110U 09069A   26203.42749341  .00000338  00000-0  53995-4 0  9991","l2":"2 36110  98.0023  89.0693 0023185 286.8315  73.0353 14.78040130894833"},{"id":"36122","name":"XIWANG-1 (HOPE-1)","type":"PAYLOAD","l1":"1 36122U 09072B   26203.58346773 -.00000238  00000-0 -50710-3 0  9999","l2":"2 36122 100.4042 156.8531 0007759 148.3472 211.8109 13.16439752797661"},{"id":"36358","name":"RADUGA 1M-2","type":"PAYLOAD","l1":"1 36358U 10002A   26203.64246424 -.00000274  00000-0  00000-0 0  9997","l2":"2 36358   3.7108  78.4179 0004637 264.3054 331.2048  0.98970042 50371"},{"id":"36519","name":"COSMOS 2463","type":"PAYLOAD","l1":"1 36519U 10017A   26203.51425391  .00000036  00000-0  23286-4 0  9990","l2":"2 36519  82.9578 223.7490 0036914  34.0833 119.6827 13.71667433812776"},{"id":"36795","name":"CARTOSAT 2B","type":"PAYLOAD","l1":"1 36795U 10035A   26203.59615876  .00000680  00000-0  99791-4 0  9992","l2":"2 36795  97.9934 253.9153 0012756  78.7806 281.4838 14.78657690865082"},{"id":"36797","name":"AISSAT 1","type":"PAYLOAD","l1":"1 36797U 10035C   26203.29171265  .00001381  00000-0  12386-3 0  9993","l2":"2 36797  98.0888 103.7697 0007637 309.8293  50.2255 14.97497591869474"},{"id":"36799","name":"TISAT 1","type":"PAYLOAD","l1":"1 36799U 10035E   26203.31405679  .00022110  00000-0  69642-3 0  9997","l2":"2 36799  98.0706 153.0175 0004834 106.5546 253.6226 15.32930011873081"},{"id":"36834","name":"YAOGAN 10","type":"PAYLOAD","l1":"1 36834U 10038A   26203.65836200  .00001710  00000-0  20464-3 0  9997","l2":"2 36834  97.8978 226.7802 0001668  83.8650  24.9436 14.85446838862478"},{"id":"37180","name":"SHIJIAN 6 04B (SJ-6 04B)","type":"PAYLOAD","l1":"1 37180U 10051B   26203.59350773 -.00000093  00000-0 -25526-5 0  9997","l2":"2 37180  97.8727 209.3834 0008596 189.4161 170.6902 14.99379812860987"},{"id":"37214","name":"FENGYUN 3B","type":"PAYLOAD","l1":"1 37214U 10059A   26203.61073897 -.00000043  00000-0  77998-6 0  9990","l2":"2 37214  98.9603 249.7717 0023254  86.6405  68.3903 14.14848015812439"},{"id":"37216","name":"SKYMED 4","type":"PAYLOAD","l1":"1 37216U 10060A   26203.61675564  .00000768  00000-0  10297-3 0  9992","l2":"2 37216  97.8906  26.7045 0001572  88.5283 271.6110 14.82157392849813"},{"id":"37224","name":"O/OREOS (USA 219)","type":"PAYLOAD","l1":"1 37224U 10062C   26203.42053629  .00001606  00000-0  15681-3 0  9998","l2":"2 37224  71.9704   0.5182 0014482 351.1937   8.8977 14.93871007121904"},{"id":"37344","name":"ELEKTRO-L","type":"PAYLOAD","l1":"1 37344U 11001A   26203.31572446  .00000041  00000-0  00000-0 0  9994","l2":"2 37344   9.7635  54.1423 0004373  35.5721 198.2075  1.00163110 56839"},{"id":"37387","name":"RESOURCESAT 2","type":"PAYLOAD","l1":"1 37387U 11015A   26203.49159662  .00000035  00000-0  36064-4 0  9992","l2":"2 37387  98.7626 270.6860 0011959 151.0110 209.1734 14.21600685791197"},{"id":"37388","name":"YOUTHSAT","type":"PAYLOAD","l1":"1 37388U 11015B   26202.70891074  .00000119  00000-0  67705-4 0  9995","l2":"2 37388  98.3709 175.2112 0013315 238.3637 295.1426 14.25642391792555"},{"id":"37793","name":"APRIZESAT 6","type":"PAYLOAD","l1":"1 37793U 11044F   26203.31968863  .00000581  00000-0  89357-4 0  9996","l2":"2 37793  98.2329 114.5327 0042494 335.3434 147.2526 14.76964313802332"},{"id":"37839","name":"JUGNU","type":"PAYLOAD","l1":"1 37839U 11058B   26203.39502277  .00000392  00000-0  65312-4 0  9998","l2":"2 37839  19.9607  94.5197 0018650 105.4868  61.7804 14.13785053764012"},{"id":"37841","name":"SRMSAT","type":"PAYLOAD","l1":"1 37841U 11058D   26203.34684259  .00000350  00000-0  46158-4 0  9998","l2":"2 37841  19.9701 206.6555 0011581 230.1974 157.7925 14.11582083762793"}]}