OBJECT_NAME,OBJECT_ID,EPOCH,MEAN_MOTION,ECCENTRICITY,INCLINATION,RA_OF_ASC_NODE,ARG_OF_PERICENTER,MEAN_ANOMALY,EPHEMERIS_TYPE,CLASSIFICATION_TYPE,NORAD_CAT_ID,ELEMENT_SET_NO,REV_AT_EPOCH,BSTAR,MEAN_MOTION_DOT,MEAN_MOTION_DDOT
CHUANGXIN 1-02 (CX-1-02),2008-056B,2026-07-22T13:24:16.914240,14.30159777,.00150871,98.6132,229.4711,40.4715,319.7587,0,U,33434,999,92367,.60692935E-4,.113E-5,0
STARS (KUKAI),2009-002G,2026-07-22T08:05:47.949792,14.95961356,.00099572,98.1554,152.0880,60.8706,299.3510,0,U,33498,999,94373,.35619059E-3,.3932E-4,0
KKS-1 (KISEKI),2009-002H,2026-07-22T12:58:13.953792,14.83201511,.00080232,98.1169,126.5424,165.0575,195.0877,0,U,33499,999,94143,.1205453E-3,.929E-5,0
NOAA 19,2009-005A,2026-07-22T12:20:38.038560,14.13479117,.0012729,98.9504,274.4118,291.9111,68.0707,0,U,33591,999,89947,.26160012E-4,.4E-7,0
UK-DMC 2,2009-041C,2026-07-22T14:40:18.230304,14.76100986,.00017,97.8879,337.7211,99.7226,260.4176,0,U,35683,999,91179,.1144508E-3,.74E-5,0
METEOR-M 1,2009-049A,2026-07-22T07:10:05.708352,14.23163570,.00018991,98.7409,165.5241,176.5897,183.5294,0,U,35865,999,87424,.40396701E-4,.47E-6,0
OCEANSAT-2,2009-051A,2026-07-22T14:02:40.098912,13.99656812,.00177699,98.2328,186.9025,132.3952,227.8722,0,U,35931,999,88428,.12312763E-3,.143E-5,0
SWISSCUBE,2009-051B,2026-07-22T06:23:06.394272,14.62540212,.00080912,98.3999,111.7611,100.3347,259.8766,0,U,35932,999,89428,.15943423E-3,.76E-5,0
BEESAT-1,2009-051C,2026-07-22T11:58:51.130560,14.61769795,.00064513,98.3927,111.5595,110.9506,249.2386,0,U,35933,999,89434,.128333E-3,.591E-5,0
ITUPSAT1,2009-051E,2026-07-22T05:55:42.811392,14.60486031,.0008467,98.4012,110.4576,123.6016,236.5993,0,U,35935,999,89385,.12771202E-3,.571E-5,0
DMSP 5D-3 F18 (USA 210),2009-057A,2026-07-22T13:40:10.596576,14.14915108,.00116342,98.9063,184.2664,145.3073,214.8861,0,U,35951,999,86459,.13010533E-3,.207E-5,0
PROBA-2,2009-059B,2026-07-22T07:34:51.976704,14.54875759,.00135211,98.2464,26.1841,166.8392,193.3161,0,U,36037,999,88663,.45106772E-4,.149E-5,0
YAOGAN-7,2009-069A,2026-07-22T10:15:35.430624,14.78040130,.00231849,98.0023,89.0693,286.8315,73.0353,0,U,36110,999,89483,.53995185E-4,.338E-5,0
XIWANG-1 (HOPE-1),2009-072B,2026-07-22T14:00:11.611872,13.16439752,.00077593,100.4042,156.8531,148.3472,211.8109,0,U,36122,999,79766,-.50710436E-3,-.238E-5,0
RADUGA-1M 2,2010-002A,2026-07-22T15:25:08.910336,0.98970042,.00046372,3.7108,78.4179,264.3054,331.2048,0,U,36358,999,5037,0,-.274E-5,0
COSMOS 2463,2010-017A,2026-07-22T12:20:31.537824,13.71667433,.00369138,82.9578,223.7490,34.0833,119.6827,0,U,36519,999,81277,.23286175E-4,.36E-6,0
CARTOSAT-2B,2010-035A,2026-07-22T14:18:28.116864,14.78657690,.00127558,97.9934,253.9153,78.7806,281.4838,0,U,36795,999,86508,.99790513E-4,.68E-5,0
AISSAT 1,2010-035C,2026-07-22T07:00:03.972960,14.97497591,.00076367,98.0888,103.7697,309.8293,50.2255,0,U,36797,999,86947,.12385768E-3,.1381E-4,0
TISAT 1,2010-035E,2026-07-22T07:32:14.506656,15.32930011,.00048339,98.0706,153.0175,106.5546,253.6226,0,U,36799,999,87308,.69641768E-3,.2211E-3,0
YAOGAN-10,2010-038A,2026-07-22T15:48:02.476800,14.85446838,.00016682,97.8978,226.7802,83.8650,24.9436,0,U,36834,999,86247,.20464226E-3,.171E-4,0
SHIJIAN-6 04B (SJ-6 04B),2010-051B,2026-07-22T14:14:39.067872,14.99379812,.00085963,97.8727,209.3834,189.4161,170.6902,0,U,37180,999,86098,-.2552587E-5,-.93E-6,0
FENGYUN 3B,2010-059A,2026-07-22T14:39:27.847008,14.14848015,.00232535,98.9603,249.7717,86.6405,68.3903,0,U,37214,999,81243,.779978E-6,-.43E-6,0
COSMO-SKYMED 4,2010-060A,2026-07-22T14:48:07.687296,14.82157392,.00015724,97.8906,26.7045,88.5283,271.6110,0,U,37216,999,84981,.10296716E-3,.768E-5,0
O/OREOS (USA 219),2010-062C,2026-07-22T10:05:34.335456,14.93871007,.00144818,71.9704,0.5182,351.1937,8.8977,0,U,37224,999,12190,.15681122E-3,.1606E-4,0
ELEKTRO-L 1 (GOMS 2),2011-001A,2026-07-22T07:34:38.593344,1.00163110,.00043728,9.7635,54.1423,35.5721,198.2075,0,U,37344,999,5683,0,.41E-6,0
RESOURCESAT-2,2011-015A,2026-07-22T11:47:53.947968,14.21600685,.00119585,98.7626,270.6860,151.0110,209.1734,0,U,37387,999,79119,.36064114E-4,.35E-6,0
YOUTHSAT,2011-015B,2026-07-21T17:00:49.887936,14.25642391,.00133149,98.3709,175.2112,238.3637,295.1426,0,U,37388,999,79255,.67704569E-4,.119E-5,0
APRIZESAT 6,2011-044F,2026-07-22T07:40:21.097632,14.76964313,.00424939,98.2329,114.5327,335.3434,147.2526,0,U,37793,999,80233,.89357335E-4,.581E-5,0
JUGNU,2011-058B,2026-07-22T09:28:49.967328,14.13785053,.00186503,19.9607,94.5197,105.4868,61.7804,0,U,37839,999,76401,.65312295E-4,.392E-5,0
SRMSAT,2011-058D,2026-07-22T08:19:27.199776,14.11582083,.0011581,19.9701,206.6555,230.1974,157.7925,0,U,37841,999,76279,.46157548E-4,.35E-5,0
